1 29155U 06018A   12263.44657858 -.00000266  00000-0  10000-3 0  2259
2 29155 000.0784 143.6738 0003286 348.2678 312.9738 01.00268691 23193